{
  "type": "FeatureCollection",
  "features": [
    {
      "type": "Feature",
      "properties": {
        "norad_id": 40069,
        "name": "METEOR-M 2",
        "group": "weather",
        "lat": -66.17792006521664,
        "lon": -2.0222783269227707,
        "alt_km": 830.3507608288983,
        "timestamp": "2025-12-27T03:58:43.824374+00:00",
        "meta_object_name": "METEOR-M 2",
        "meta_object_id": "2014-037A",
        "meta_epoch": "2025-12-26T21:32:21.240384",
        "meta_mean_motion": 14.21391493,
        "meta_eccentricity": 0.0005732,
        "meta_inclination": 98.4923,
        "meta_ra_of_asc_node": 337.9401,
        "meta_arg_of_pericenter": 166.1056,
        "meta_mean_anomaly": 194.0281,
        "meta_ephemeris_type": 0,
        "meta_classification_type": "U",
        "meta_norad_cat_id": 40069,
        "meta_element_set_no": 999,
        "meta_rev_at_epoch": 59484,
        "meta_bstar": -1.7628e-06,
        "meta_mean_motion_dot": -4.6e-07,
        "meta_mean_motion_ddot": 0,
        "tle_line1": "1 40069U 14037A   25360.89746806 -.00000046  00000+0 -17628-5 0  9998",
        "tle_line2": "2 40069  98.4923 337.9401 0005732 166.1056 194.0281 14.21391493594847"
      },
      "geometry": {
        "type": "Point",
        "coordinates": [
          -2.0222783269227707,
          -66.17792006521664
        ]
      }
    },
    {
      "type": "Feature",
      "properties": {
        "norad_id": 40267,
        "name": "HIMAWARI-8",
        "group": "weather",
        "lat": 0.021728419606839106,
        "lon": -63.76398296138168,
        "alt_km": 35782.27351276439,
        "timestamp": "2025-12-27T03:58:43.824384+00:00",
        "meta_object_name": "HIMAWARI-8",
        "meta_object_id": "2014-060A",
        "meta_epoch": "2025-12-26T08:33:59.245344",
        "meta_mean_motion": 1.0027063,
        "meta_eccentricity": 0.000101,
        "meta_inclination": 0.0427,
        "meta_ra_of_asc_node": 196.506,
        "meta_arg_of_pericenter": 108.6661,
        "meta_mean_anomaly": 59.0936,
        "meta_ephemeris_type": 0,
        "meta_classification_type": "U",
        "meta_norad_cat_id": 40267,
        "meta_element_set_no": 999,
        "meta_rev_at_epoch": 4102,
        "meta_bstar": 0,
        "meta_mean_motion_dot": -2.54e-06,
        "meta_mean_motion_ddot": 0,
        "tle_line1": "1 40267U 14060A   25360.35693571 -.00000254  00000+0  00000+0 0  9995",
        "tle_line2": "2 40267   0.0427 196.5060 0001010 108.6661  59.0936  1.00270630 41029"
      },
      "geometry": {
        "type": "Point",
        "coordinates": [
          -63.76398296138168,
          0.021728419606839106
        ]
      }
    },
    {
      "type": "Feature",
      "properties": {
        "norad_id": 40367,
        "name": "FENGYUN 2G",
        "group": "weather",
        "lat": -0.011837332016690197,
        "lon": -105.10868577857273,
        "alt_km": 35775.98682779019,
        "timestamp": "2025-12-27T03:58:43.824395+00:00",
        "meta_object_name": "FENGYUN 2G",
        "meta_object_id": "2014-090A",
        "meta_epoch": "2025-12-26T20:25:12.847296",
        "meta_mean_motion": 1.00281295,
        "meta_eccentricity": 0.0001793,
        "meta_inclination": 5.2009,
        "meta_ra_of_asc_node": 74.9231,
        "meta_arg_of_pericenter": 170.6742,
        "meta_mean_anomaly": 255.5928,
        "meta_ephemeris_type": 0,
        "meta_classification_type": "U",
        "meta_norad_cat_id": 40367,
        "meta_element_set_no": 999,
        "meta_rev_at_epoch": 4027,
        "meta_bstar": 0,
        "meta_mean_motion_dot": -2.81e-06,
        "meta_mean_motion_ddot": 0,
        "tle_line1": "1 40367U 14090A   25360.85084314 -.00000281  00000+0  00000+0 0  9993",
        "tle_line2": "2 40367   5.2009  74.9231 0001793 170.6742 255.5928  1.00281295 40278"
      },
      "geometry": {
        "type": "Point",
        "coordinates": [
          -105.10868577857273,
          -0.011837332016690197
        ]
      }
    },
    {
      "type": "Feature",
      "properties": {
        "norad_id": 40732,
        "name": "METEOSAT-11 (MSG-4)",
        "group": "weather",
        "lat": 2.7780673331013723,
        "lon": 164.75982766844515,
        "alt_km": 35783.55454463516,
        "timestamp": "2025-12-27T03:58:43.824406+00:00",
        "meta_object_name": "METEOSAT-11 (MSG-4)",
        "meta_object_id": "2015-034A",
        "meta_epoch": "2025-12-25T16:31:52.264704",
        "meta_mean_motion": 1.00271545,
        "meta_eccentricity": 6.999e-05,
        "meta_inclination": 2.7688,
        "meta_ra_of_asc_node": 71.966,
        "meta_arg_of_pericenter": 136.703,
        "meta_mean_anomaly": 142.9271,
        "meta_ephemeris_type": 0,
        "meta_classification_type": "U",
        "meta_norad_cat_id": 40732,
        "meta_element_set_no": 999,
        "meta_rev_at_epoch": 547,
        "meta_bstar": 0,
        "meta_mean_motion_dot": 8.2e-07,
        "meta_mean_motion_ddot": 0,
        "tle_line1": "1 40732U 15034A   25359.68879936  .00000082  00000+0  00000+0 0  9997",
        "tle_line2": "2 40732   2.7688  71.9660 0000699 136.7030 142.9271  1.00271545  5479"
      },
      "geometry": {
        "type": "Point",
        "coordinates": [
          164.75982766844515,
          2.7780673331013723
        ]
      }
    },
    {
      "type": "Feature",
      "properties": {
        "norad_id": 41105,
        "name": "ELEKTRO-L 2",
        "group": "weather",
        "lat": 5.8351001487807865,
        "lon": 140.9645060913535,
        "alt_km": 35797.080983362925,
        "timestamp": "2025-12-27T03:58:43.824417+00:00",
        "meta_object_name": "ELEKTRO-L 2",
        "meta_object_id": "2015-074A",
        "meta_epoch": "2025-12-26T06:33:21.536352",
        "meta_mean_motion": 1.00271736,
        "meta_eccentricity": 0.0003634,
        "meta_inclination": 6.2575,
        "meta_ra_of_asc_node": 72.6671,
        "meta_arg_of_pericenter": 208.1053,
        "meta_mean_anomaly": 258.1181,
        "meta_ephemeris_type": 0,
        "meta_classification_type": "U",
        "meta_norad_cat_id": 41105,
        "meta_element_set_no": 999,
        "meta_rev_at_epoch": 3677,
        "meta_bstar": 0,
        "meta_mean_motion_dot": -9.7e-07,
        "meta_mean_motion_ddot": 0,
        "tle_line1": "1 41105U 15074A   25360.27316593 -.00000097  00000+0  00000+0 0  9995",
        "tle_line2": "2 41105   6.2575  72.6671 0003634 208.1053 258.1181  1.00271736 36778"
      },
      "geometry": {
        "type": "Point",
        "coordinates": [
          140.9645060913535,
          5.8351001487807865
        ]
      }
    },
    {
      "type": "Feature",
      "properties": {
        "norad_id": 41752,
        "name": "INSAT-3DR",
        "group": "weather",
        "lat": 0.012544485006793732,
        "lon": -130.54630292822424,
        "alt_km": 35741.40613785227,
        "timestamp": "2025-12-27T03:58:43.824428+00:00",
        "meta_object_name": "INSAT-3DR",
        "meta_object_id": "2016-054A",
        "meta_epoch": "2025-12-26T03:06:52.542720",
        "meta_mean_motion": 1.00271485,
        "meta_eccentricity": 0.0014374,
        "meta_inclination": 0.0398,
        "meta_ra_of_asc_node": 84.8108,
        "meta_arg_of_pericenter": 187.3091,
        "meta_mean_anomaly": 303.4691,
        "meta_ephemeris_type": 0,
        "meta_classification_type": "U",
        "meta_norad_cat_id": 41752,
        "meta_element_set_no": 999,
        "meta_rev_at_epoch": 3408,
        "meta_bstar": 0,
        "meta_mean_motion_dot": -5.5e-07,
        "meta_mean_motion_ddot": 0,
        "tle_line1": "1 41752U 16054A   25360.12977480 -.00000055  00000+0  00000+0 0  9998",
        "tle_line2": "2 41752   0.0398  84.8108 0014374 187.3091 303.4691  1.00271485 34087"
      },
      "geometry": {
        "type": "Point",
        "coordinates": [
          -130.54630292822424,
          0.012544485006793732
        ]
      }
    },
    {
      "type": "Feature",
      "properties": {
        "norad_id": 41836,
        "name": "HIMAWARI-9",
        "group": "weather",
        "lat": -0.019758277822341713,
        "lon": -63.6428886912976,
        "alt_km": 35781.829264308755,
        "timestamp": "2025-12-27T03:58:43.824439+00:00",
        "meta_object_name": "HIMAWARI-9",
        "meta_object_id": "2016-064A",
        "meta_epoch": "2025-12-26T00:44:38.656608",
        "meta_mean_motion": 1.00271993,
        "meta_eccentricity": 0.00010793,
        "meta_inclination": 0.0124,
        "meta_ra_of_asc_node": 80.1849,
        "meta_arg_of_pericenter": 234.8379,
        "meta_mean_anomaly": 291.7052,
        "meta_ephemeris_type": 0,
        "meta_classification_type": "U",
        "meta_norad_cat_id": 41836,
        "meta_element_set_no": 999,
        "meta_rev_at_epoch": 3347,
        "meta_bstar": 0,
        "meta_mean_motion_dot": -2.53e-06,
        "meta_mean_motion_ddot": 0,
        "tle_line1": "1 41836U 16064A   25360.03100297 -.00000253  00000+0  00000+0 0  9996",
        "tle_line2": "2 41836   0.0124  80.1849 0001079 234.8379 291.7052  1.00271993 33479"
      },
      "geometry": {
        "type": "Point",
        "coordinates": [
          -63.6428886912976,
          -0.019758277822341713
        ]
      }
    }
  ]
}